GPS BIIA-23 (PRN 18)    
1 22877U 93068A   18140.36821274 -.00000013  00000-0  00000+0 0  9993
2 22877  54.4088  84.6460 0143170  74.5253  37.4706  2.00565253179997
GPS BIIR-2  (PRN 13)    
1 24876U 97035A   18140.10667921  .00000006  00000-0  00000+0 0  9992
2 24876  55.4902 213.8694 0031651  90.7151 269.7160  2.00565057152588
GPS BIIR-3  (PRN 11)    
1 25933U 99055A   18140.37981774 -.00000057  00000-0  00000+0 0  9992
2 25933  51.8697  62.9021 0166219 101.0214  21.5831  2.00567648136417
GPS BIIR-4  (PRN 20)    
1 26360U 00025A   18140.33880448  .00000056  00000-0  00000+0 0  9996
2 26360  53.1939 140.8260 0040427 112.7600  44.4149  2.00426624132091
GPS BIIR-5  (PRN 28)    
1 26407U 00040A   18140.33738605 -.00000049  00000-0  00000+0 0  9995
2 26407  56.4951 331.9823 0196900 272.8912 206.2170  2.00563233130776
GPS BIIR-6  (PRN 14)    
1 26605U 00071A   18140.31402806  .00000006  00000-0  00000+0 0  9990
2 26605  55.0633 211.4638 0100726 248.6139 116.7305  2.00573613128378
GPS BIIR-8  (PRN 16)    
1 27663U 03005A   18139.94971449 -.00000048  00000-0  00000+0 0  9993
2 27663  56.5601 331.7539 0099268  28.2091 290.2072  2.00568614112138
GPS BIIR-9  (PRN 21)    
1 27704U 03010A   18140.38679852 -.00000015  00000-0  00000+0 0  9992
2 27704  54.0790  84.2405 0246682 270.7224 323.1446  2.00559526110944
GPS BIIR-10 (PRN 22)    
1 28129U 03058A   18140.29631776  .00000055  00000-0  00000+0 0  9992
2 28129  53.0068 143.6894 0076061 271.6335  87.5083  2.00547046105632
GPS BIIR-11 (PRN 19)    
1 28190U 04009A   18140.19218181 -.00000081  00000-0  00000+0 0  9997
2 28190  56.1611  32.6059 0096607  67.2596 214.6714  2.00559168103814
GPS BIIR-12 (PRN 23)    
1 28361U 04023A   18140.46738454  .00000008  00000-0  00000+0 0  9991
2 28361  54.0624 206.2259 0126533 225.2610 173.3331  2.00548808101904
GPS BIIR-13 (PRN 02)    
1 28474U 04045A   18140.41675980 -.00000015  00000-0  00000+0 0  9998
2 28474  54.4484  83.8418 0181263 253.8011 107.1774  2.00555646 99265
GPS BIIRM-1 (PRN 17)    
1 28874U 05038A   18140.19201035 -.00000082  00000-0  00000+0 0  9990
2 28874  56.3035  29.9126 0125771 258.4660  43.3425  2.00577158 92665
GPS BIIRM-2 (PRN 31)    
1 29486U 06042A   18140.36768177 -.00000021  00000-0  00000+0 0  9993
2 29486  55.1957 268.7828 0087793 351.1611   3.9799  2.00564929 85373
GPS BIIRM-3 (PRN 12)    
1 29601U 06052A   18140.31967776 -.00000048  00000-0  00000+0 0  9993
2 29601  56.5353 330.6566 0070065  55.0234 305.6445  2.00573676 84299
GPS BIIRM-4 (PRN 15)    
1 32260U 07047A   18140.13851857  .00000014  00000-0  00000+0 0  9997
2 32260  53.1869 202.2863 0100981  37.8056 322.9746  2.00555156 77677
GPS BIIRM-5 (PRN 29)    
1 32384U 07062A   18140.16407859 -.00000082  00000-0  00000+0 0  9999
2 32384  56.3767  30.5205 0005644  53.5310  99.3527  2.00561609 76408
GPS BIIRM-6 (PRN 07)    
1 32711U 08012A   18140.05045454 -.00000018  00000-0  00000+0 0  9995
2 32711  54.9292 268.0813 0117385 215.8441 143.3598  2.00564380 74580
GPS BIIRM-8 (PRN 05)    
1 35752U 09043A   18140.26086944  .00000059  00000-0  00000+0 0  9994
2 35752  54.3141 145.8435 0052277  32.8416 149.6293  2.00559564 64177
GPS BIIF-1  (PRN 25)    
1 36585U 10022A   18140.10634338 -.00000046  00000-0  00000+0 0  9994
2 36585  55.8276 327.2465 0073157  47.9462 124.9604  2.00567110 58412
GPS BIIF-2  (PRN 01)    
1 37753U 11036A   18140.34814799 -.00000006  00000-0  00000+0 0  9991
2 37753  55.6484  87.3381 0076400  34.5299  39.9449  2.00564028 50109
GPS BIIF-3  (PRN 24)    
1 38833U 12053A   18139.73296814 -.00000017  00000-0  00000-0 0  9997
2 38833  53.9590 264.6793 0068170  29.6128 330.7694  2.00566244 40370
GPS BIIF-4  (PRN 27)    
1 39166U 13023A   18140.08844922 -.00000083  00000-0  00000+0 0  9996
2 39166  56.0015  26.8218 0058448  21.8117 338.4776  2.00562745 36705
GPS BIIF-5  (PRN 30)    
1 39533U 14008A   18140.08743208 -.00000021  00000-0  00000+0 0  9995
2 39533  54.1045 270.0103 0034175 186.8925 173.0546  2.00555710 31067
GPS BIIF-6  (PRN 06)    
1 39741U 14026A   18139.86902769 -.00000006  00000-0  00000+0 0  9992
2 39741  55.6319  86.8798 0013930 293.6250  66.2045  2.00568997 29341
GPS BIIF-7  (PRN 09)    
1 40105U 14045A   18139.96171391  .00000014  00000-0  00000+0 0  9997
2 40105  54.5881 206.3360 0007334 111.6501 248.5021  2.00569301 27798
GPS BIIF-8  (PRN 03)    
1 40294U 14068A   18140.32981969  .00000061  00000-0  00000+0 0  9995
2 40294  55.0648 147.0856 0012945  15.0078 345.0496  2.00553678 26029
GPS BIIF-9  (PRN 26)    
1 40534U 15013A   18139.96773875 -.00000048  00000-0  00000+0 0  9992
2 40534  54.7701 326.0021 0027779   2.4176 357.6003  2.00565278 23080
GPS BIIF-10  (PRN 08)   
1 40730U 15033A   18140.13327381 -.00000084  00000-0  00000+0 0  9990
2 40730  55.5322  26.3389 0035898 331.4418  28.4029  2.00576120 20848
GPS BIIF-11  (PRN 10)   
1 41019U 15062A   18140.18121254  .00000060  00000-0  00000+0 0  9992
2 41019  55.0703 146.8934 0036227 206.1039 153.7319  2.00564299 18660
GPS BIIF-12  (PRN 32)   
1 41328U 16007A   18139.77016255  .00000016  00000-0  00000+0 0  9993
2 41328  54.8392 206.6258 0022439 217.7809 142.1361  2.00564229 16717
